0 COSMOS 2431 (GLONASS)
1 32277U 07052C   13281.65078106  .00000067  00000-0  10000-3 0  6492
2 32277 065.0090 111.0835 0018105 190.5502 022.6358 02.13209863 46425
0 COSMOS 2431 (GLONASS)
1 32277U 07052C   13282.69887581  .00000067  00000-0  10000-3 0  6504
2 32277 065.0095 111.0483 0018108 190.5133 107.1410 02.13209864 46443
0 COSMOS 2431 (GLONASS)
1 32277U 07052C   13284.18654263  .00000074  00000-0  10000-3 0  6518
2 32277 065.0098 110.9983 0018133 190.5036 169.0140 02.13209861 46476
0 COSMOS 2431 (GLONASS)
1 32277U 07052C   13285.27287302  .00000081  00000-0  10000-3 0  6524
2 32277 065.0100 110.9617 0018128 190.4836 282.8496 02.13209850 46505
0 COSMOS 2431 (GLONASS)
1 32277U 07052C   13287.13741292  .00000090  00000-0  10000-3 0  6535
2 32277 065.0109 110.8988 0018159 190.4650 274.0010 02.13209842 46542
0 COSMOS 2431 (GLONASS)
1 32277U 07052C   13289.10926024  .00000082  00000-0  10000-3 0  6544
2 32277 065.0115 110.8325 0018198 190.4339 347.5285 02.13209826 46587
0 COSMOS 2431 (GLONASS)
1 32277U 07052C   13290.28450795  .00000082  00000-0  10000-3 0  6564
2 32277 065.0122 110.7920 0018299 189.8883 170.1296 02.13208657 46610
0 COSMOS 2431 (GLONASS)
1 32277U 07052C   13290.68310152  .00000065  00000-0  10000-3 0  6550
2 32277 065.0117 110.7795 0018218 190.3938 115.5744 02.13209812 46618
0 COSMOS 2431 (GLONASS)
1 32277U 07052C   13292.44312801  .00000044  00000-0  10000-3 0  6567
2 32277 065.0121 110.7201 0018219 190.3848 026.4964 02.13209801 46652
0 COSMOS 2431 (GLONASS)
1 32277U 07052C   13294.20455671  .00000034  00000-0  10000-3 0  6576
2 32277 065.0126 110.6607 0018221 190.3693 298.4997 02.13209770 46693
0 COSMOS 2431 (GLONASS)
1 32277U 07052C   13295.41832925  .00000037  00000-0  10000-3 0  6585
2 32277 065.0128 110.6197 0018234 190.3247 150.1775 02.13209739 46714
